#aV2021 12  9  0  0  0.00000000     288 DD+AD WGS84 FIT  NGA
## 2187 345600.00000000   300.00000000 59557 0.0000000000000
+   32     1  2  3  4  5  6  7  8  9 10 11 12 13 14 15 16 17
+         18 19 20 21 22 23 24 25 26 27 28 29 30 31 32  0  0
+          0  0  0  0  0  0  0  0  0  0  0  0  0  0  0  0  0
+          0  0  0  0  0  0  0  0  0  0  0  0  0  0  0  0  0
+          0  0  0  0  0  0  0  0  0  0  0  0  0  0  0  0  0
++         2  2  2  2  2  2  2  2  2  2  2  2  2  2  2  2  2
++         2  2  2  2  2  2  2  2  2  2  2  2  2  2  2  0  0
++         0  0  0  0  0  0  0  0  0  0  0  0  0  0  0  0  0
++         0  0  0  0  0  0  0  0  0  0  0  0  0  0  0  0  0
++         0  0  0  0  0  0  0  0  0  0  0  0  0  0  0  0  0
%c cc cc ccc ccc cccc cccc cccc cccc ccccc ccccc ccccc ccccc
%c cc cc ccc ccc cccc cccc cccc cccc ccccc ccccc ccccc ccccc
%f  0.0000000  0.000000000  0.00000000000  0.000000000000000
%f  0.0000000  0.000000000  0.00000000000  0.000000000000000
%i    0    0    0    0      0      0      0      0         0
%i    0    0    0    0      0      0      0      0         0
/*      NGA, ST. LOUIS,MO.                                  
/*   EPHEMERIS COMPUTED FROM 2 DAYS OF DATA                 
/*   EPOCHA v7 SMOOTHER                                     
/*   G2139 IERS2010 SATIGS SATAPC                           
*  2021 12  9 22 35  0.00000000
P  1   1742.295827 -15901.064683 -21410.311225    488.374634                    
V  1  24955.763067  -9083.559127   9220.626334     -0.102278                    
P  2 -20231.372232  15878.668854   7485.522615   -645.118164                    
V  2  -8741.542704   1739.843037 -29887.767923     -0.013237                    
P  3  -7868.618462 -19882.910189 -15924.116449    -36.639807                    
V  3  16746.980086  10983.987229 -22035.781569     -0.118589                    
P  4   -111.205125 -25730.703438   6423.151325   -199.554836                    
V  4   4120.040901  -7582.506898 -30380.134116      0.012234                    
P  5  -7319.264521  13377.797767  21574.551042    -63.860893                    
V  5 -22767.118670 -15960.284179   2303.506178     -0.012961                    
P  6 -25055.024508   4757.273903  -7464.941506    138.585866                    
V  6   8143.852984  -5292.681815 -30369.386545      0.098867                    
P  7 -15132.310658  -9467.266994  20185.892114    288.886299                    
V  7  22618.905636  -9982.255151  12018.657137      0.046690                    
P  8   6464.253935 -25076.968885   5026.953426    -47.448868                    
V  8   2109.980289   6751.131220  31207.029729     -0.014444                    
P  9  -8912.837005 -19401.167455  15704.891085   -360.716190                    
V  9   4506.951186 -19714.300342 -21723.200873      0.006311                    
P 10  23015.075825  10371.800422  -8597.289153   -264.965591                    
V 10   7434.754657   8364.232320  29262.403613     -0.088806                    
P 11 -22968.983374  12042.820575   5691.713027     14.217817                    
V 11  -7726.611265   -230.962903 -30675.140658     -0.030335                    
P 12   4619.053232  19967.609594 -17223.563852   -138.414219                    
V 12 -16776.849549 -13193.961369 -19962.008408     -0.055964                    
P 13 -13060.700400  20525.085697  10316.571990    227.040324                    
V 13   1220.102731 -13534.359158  28204.157037      0.057893                    
P 14 -22573.613791 -11125.457950  -8585.566407    -52.541019                    
V 14  -6563.986641  -9105.730947  29005.647229     -0.062910                    
P 15  -3318.132174  25811.349837   3944.469417   -100.357302                    
V 15  -3993.632915  -5627.620120  30705.744021      0.028172                    
P 16  11444.904179  -9614.164417  21718.143887   -437.784665                    
V 16  20596.226097  19170.316835  -1889.577166     -0.060813                    
P 17 -13517.364540  -6147.617091 -21580.279435    545.226225                    
V 17   5923.494717 -27784.670681   4150.822884      0.052439                    
P 18  15474.274893   8613.839798  19820.582628    282.237125                    
V 18 -23091.711139   9941.402433  13605.608470     -0.064660                    
P 19 -15643.602703   3130.416984 -21465.811195     90.095677                    
V 19   5821.836100 -25988.886052  -8299.669289      0.049957                    
P 20 -16683.156409   6874.409531  19391.733010    517.720737                    
V 20 -20883.022588 -13480.727991 -13436.385024     -0.001911                    
P 21  10789.330324 -17652.022674 -15628.850734    153.310503                    
V 21  20235.436133  -7280.095758  21850.207363      0.009881                    
P 22   -286.933942 -17395.090791 -19951.370715   -445.213794                    
V 22  22506.431370  12548.019793 -10959.168390      0.089848                    
P 23  20379.364288  16950.371593   2313.651696     23.645668                    
V 23  -3882.484727    301.039705  31650.343007     -0.041969                    
P 24  -5326.468809  18142.006689 -18777.558031    273.742273                    
V 24 -21894.036896   8733.216458  15287.315611      0.023109                    
P 25  15417.868908  19931.460675  -9103.078675    253.310078                    
V 25 -10222.690327  -4916.235972 -28668.688194      0.057706                    
P 26  21076.649711    237.026812  16268.035785    163.438814                    
V 26  15779.499736  13605.745403 -20254.132113      0.036643                    
P 27  12146.604911 -18680.479831  13972.285143   -229.100369                    
V 27   -332.214013  18307.697885  24815.335483     -0.045144                    
P 28 -20874.108592  -5834.190395 -14667.144285    446.370438                    
V 28 -12839.285114 -15013.694567  23613.710892     -0.076521                    
P 29   4179.417720  22598.952119  13225.018358   -451.815174                    
V 29  -5253.740987  16098.740601 -25825.640666     -0.051385                    
P 30 -22681.811207  -2267.343413  13893.263761   -498.050711                    
V 30  15429.281630  -8642.997131  23655.305926     -0.029905                    
P 31  25682.322369  -5809.466929  -5178.476317   -154.254457                    
V 31  -5052.354135   4584.823620 -30428.302417     -0.018818                    
P 32  15175.986675   1403.667189 -21633.126963    -32.909639                    
V 32  -3439.365570  27549.451569   -803.950571     -0.053063                    
EOF
